STARLINK-5604           
1 55420U 23014AF  26068.32510867  .00000281  00000+0  31326-4 0  9999
2 55420  70.0002  45.4011 0002917 268.8937  91.1887 14.98329544172490
CENTAURI-8              
1 62714U 25009DK  26068.72637183  .00004445  00000+0  38891-3 0  9993
2 62714  97.7096 150.1876 0003020 109.5881 250.5667 14.97228330 62597
